CCSDS_OMM_VERS = 2.0
CREATION_DATE  = 
ORIGINATOR     = 

OBJECT_NAME    = SL-3 R/B
OBJECT_ID      = 1982-079B
CENTER_NAME    = EARTH
REF_FRAME      = TEME
TIME_SYSTEM    = UTC
MEAN_ELEMENT_THEORY = SGP/SGP4

EPOCH          = 2026-02-10T04:00:11.963232
MEAN_MOTION    = 15.24391306
ECCENTRICITY   = .00241756
INCLINATION    = 81.1446
RA_OF_ASC_NODE = 225.5669
ARG_OF_PERICENTER = 259.3054
MEAN_ANOMALY   = 100.5457

EPHEMERIS_TYPE = 0
CLASSIFICATION_TYPE = U
NORAD_CAT_ID   = 13403
ELEMENT_SET_NO = 999
REV_AT_EPOCH   = 37350
BSTAR          = .23007978E-3
MEAN_MOTION_DOT = .5708E-4
MEAN_MOTION_DDOT = 0

CCSDS_OMM_VERS = 2.0
CREATION_DATE  = 
ORIGINATOR     = 

OBJECT_NAME    = SL-14 R/B
OBJECT_ID      = 1982-092B
CENTER_NAME    = EARTH
REF_FRAME      = TEME
TIME_SYSTEM    = UTC
MEAN_ELEMENT_THEORY = SGP/SGP4

EPOCH          = 2026-02-10T07:25:59.180736
MEAN_MOTION    = 14.86636026
ECCENTRICITY   = .00212047
INCLINATION    = 82.5705
RA_OF_ASC_NODE = 167.0008
ARG_OF_PERICENTER = 35.7349
MEAN_ANOMALY   = 347.0134

EPHEMERIS_TYPE = 0
CLASSIFICATION_TYPE = U
NORAD_CAT_ID   = 13553
ELEMENT_SET_NO = 999
REV_AT_EPOCH   = 32486
BSTAR          = .6951227E-4
MEAN_MOTION_DOT = .644E-5
MEAN_MOTION_DDOT = 0

CCSDS_OMM_VERS = 2.0
CREATION_DATE  = 
ORIGINATOR     = 

OBJECT_NAME    = SL-3 R/B
OBJECT_ID      = 1983-010B
CENTER_NAME    = EARTH
REF_FRAME      = TEME
TIME_SYSTEM    = UTC
MEAN_ELEMENT_THEORY = SGP/SGP4

EPOCH          = 2026-02-09T23:47:33.119520
MEAN_MOTION    = 15.45365270
ECCENTRICITY   = .00180681
INCLINATION    = 81.1027
RA_OF_ASC_NODE = 36.1804
ARG_OF_PERICENTER = 138.8291
MEAN_ANOMALY   = 221.4320

EPHEMERIS_TYPE = 0
CLASSIFICATION_TYPE = U
NORAD_CAT_ID   = 13819
ELEMENT_SET_NO = 999
REV_AT_EPOCH   = 35366
BSTAR          = .32373333E-3
MEAN_MOTION_DOT = .15587E-3
MEAN_MOTION_DDOT = 0

CCSDS_OMM_VERS = 2.0
CREATION_DATE  = 
ORIGINATOR     = 

OBJECT_NAME    = SL-3 R/B
OBJECT_ID      = 1983-075B
CENTER_NAME    = EARTH
REF_FRAME      = TEME
TIME_SYSTEM    = UTC
MEAN_ELEMENT_THEORY = SGP/SGP4

EPOCH          = 2026-02-10T04:00:24.902496
MEAN_MOTION    = 15.37706454
ECCENTRICITY   = .00208955
INCLINATION    = 97.6136
RA_OF_ASC_NODE = 44.7220
ARG_OF_PERICENTER = 333.5032
MEAN_ANOMALY   = 26.5142

EPHEMERIS_TYPE = 0
CLASSIFICATION_TYPE = U
NORAD_CAT_ID   = 14208
ELEMENT_SET_NO = 999
REV_AT_EPOCH   = 32592
BSTAR          = .33338058E-3
MEAN_MOTION_DOT = .12352E-3
MEAN_MOTION_DDOT = 0

CCSDS_OMM_VERS = 2.0
CREATION_DATE  = 
ORIGINATOR     = 

OBJECT_NAME    = COSMOS 1536
OBJECT_ID      = 1984-013A
CENTER_NAME    = EARTH
REF_FRAME      = TEME
TIME_SYSTEM    = UTC
MEAN_ELEMENT_THEORY = SGP/SGP4

EPOCH          = 2026-02-10T06:25:46.463232
MEAN_MOTION    = 15.23457246
ECCENTRICITY   = .00147441
INCLINATION    = 82.5469
RA_OF_ASC_NODE = 135.0956
ARG_OF_PERICENTER = 24.6761
MEAN_ANOMALY   = 335.5178

EPHEMERIS_TYPE = 0
CLASSIFICATION_TYPE = U
NORAD_CAT_ID   = 14699
ELEMENT_SET_NO = 999
REV_AT_EPOCH   = 26844
BSTAR          = .26703863E-3
MEAN_MOTION_DOT = .6414E-4
MEAN_MOTION_DDOT = 0

CCSDS_OMM_VERS = 2.0
CREATION_DATE  = 
ORIGINATOR     = 

OBJECT_NAME    = SL-14 R/B
OBJECT_ID      = 1984-027B
CENTER_NAME    = EARTH
REF_FRAME      = TEME
TIME_SYSTEM    = UTC
MEAN_ELEMENT_THEORY = SGP/SGP4

EPOCH          = 2026-02-10T03:38:42.643680
MEAN_MOTION    = 14.85949032
ECCENTRICITY   = .00193945
INCLINATION    = 82.5396
RA_OF_ASC_NODE = 270.8458
ARG_OF_PERICENTER = 66.6926
MEAN_ANOMALY   = 293.6329

EPHEMERIS_TYPE = 0
CLASSIFICATION_TYPE = U
NORAD_CAT_ID   = 14820
ELEMENT_SET_NO = 999
REV_AT_EPOCH   = 24354
BSTAR          = .47488282E-4
MEAN_MOTION_DOT = .44E-5
MEAN_MOTION_DDOT = 0

CCSDS_OMM_VERS = 2.0
CREATION_DATE  = 
ORIGINATOR     = 

OBJECT_NAME    = SL-8 R/B
OBJECT_ID      = 1985-006B
CENTER_NAME    = EARTH
REF_FRAME      = TEME
TIME_SYSTEM    = UTC
MEAN_ELEMENT_THEORY = SGP/SGP4

EPOCH          = 2026-02-10T06:06:59.497056
MEAN_MOTION    = 14.37769586
ECCENTRICITY   = .00194528
INCLINATION    = 74.0470
RA_OF_ASC_NODE = 311.6309
ARG_OF_PERICENTER = 234.8144
MEAN_ANOMALY   = 245.1897

EPHEMERIS_TYPE = 0
CLASSIFICATION_TYPE = U
NORAD_CAT_ID   = 15483
ELEMENT_SET_NO = 999
REV_AT_EPOCH   = 15008
BSTAR          = .89449072E-4
MEAN_MOTION_DOT = .243E-5
MEAN_MOTION_DDOT = 0

CCSDS_OMM_VERS = 2.0
CREATION_DATE  = 
ORIGINATOR     = 

OBJECT_NAME    = SL-12 R/B(2)
OBJECT_ID      = 1985-042D
CENTER_NAME    = EARTH
REF_FRAME      = TEME
TIME_SYSTEM    = UTC
MEAN_ELEMENT_THEORY = SGP/SGP4

EPOCH          = 2026-02-09T16:57:22.610016
MEAN_MOTION    = 14.21974521
ECCENTRICITY   = .00348551
INCLINATION    = 71.1088
RA_OF_ASC_NODE = 146.8486
ARG_OF_PERICENTER = 173.0206
MEAN_ANOMALY   = 299.3710

EPHEMERIS_TYPE = 0
CLASSIFICATION_TYPE = U
NORAD_CAT_ID   = 15772
ELEMENT_SET_NO = 999
REV_AT_EPOCH   = 11041
BSTAR          = .11066524E-3
MEAN_MOTION_DOT = .198E-5
MEAN_MOTION_DDOT = 0

CCSDS_OMM_VERS = 2.0
CREATION_DATE  = 
ORIGINATOR     = 

OBJECT_NAME    = SL-14 R/B
OBJECT_ID      = 1985-069B
CENTER_NAME    = EARTH
REF_FRAME      = TEME
TIME_SYSTEM    = UTC
MEAN_ELEMENT_THEORY = SGP/SGP4

EPOCH          = 2026-02-10T01:51:51.309216
MEAN_MOTION    = 14.86400223
ECCENTRICITY   = .00172337
INCLINATION    = 82.5240
RA_OF_ASC_NODE = 50.9026
ARG_OF_PERICENTER = 285.3293
MEAN_ANOMALY   = 74.6019

EPHEMERIS_TYPE = 0
CLASSIFICATION_TYPE = U
NORAD_CAT_ID   = 15945
ELEMENT_SET_NO = 999
REV_AT_EPOCH   = 16873
BSTAR          = .62836446E-4
MEAN_MOTION_DOT = .58E-5
MEAN_MOTION_DDOT = 0

CCSDS_OMM_VERS = 2.0
CREATION_DATE  = 
ORIGINATOR     = 

OBJECT_NAME    = SL-16 R/B
OBJECT_ID      = 1985-097B
CENTER_NAME    = EARTH
REF_FRAME      = TEME
TIME_SYSTEM    = UTC
MEAN_ELEMENT_THEORY = SGP/SGP4

EPOCH          = 2026-02-09T23:14:03.280992
MEAN_MOTION    = 14.16596159
ECCENTRICITY   = .00096696
INCLINATION    = 71.0018
RA_OF_ASC_NODE = 198.9112
ARG_OF_PERICENTER = 292.0196
MEAN_ANOMALY   = 204.4153

EPHEMERIS_TYPE = 0
CLASSIFICATION_TYPE = U
NORAD_CAT_ID   = 16182
ELEMENT_SET_NO = 999
REV_AT_EPOCH   = 8330
BSTAR          = -.48289565E-4
MEAN_MOTION_DOT = -.144E-5
MEAN_MOTION_DDOT = 0

CCSDS_OMM_VERS = 2.0
CREATION_DATE  = 
ORIGINATOR     = 

OBJECT_NAME    = SL-14 R/B
OBJECT_ID      = 1986-006B
CENTER_NAME    = EARTH
REF_FRAME      = TEME
TIME_SYSTEM    = UTC
MEAN_ELEMENT_THEORY = SGP/SGP4

EPOCH          = 2026-02-10T04:43:05.969568
MEAN_MOTION    = 14.86777697
ECCENTRICITY   = .00767924
INCLINATION    = 82.5264
RA_OF_ASC_NODE = 285.6154
ARG_OF_PERICENTER = 5.0395
MEAN_ANOMALY   = 355.1576

EPHEMERIS_TYPE = 0
CLASSIFICATION_TYPE = U
NORAD_CAT_ID   = 16496
ELEMENT_SET_NO = 999
REV_AT_EPOCH   = 14512
BSTAR          = .78944886E-4
MEAN_MOTION_DOT = .768E-5
MEAN_MOTION_DDOT = 0

CCSDS_OMM_VERS = 2.0
CREATION_DATE  = 
ORIGINATOR     = 

OBJECT_NAME    = COSMOS 1743
OBJECT_ID      = 1986-034A
CENTER_NAME    = EARTH
REF_FRAME      = TEME
TIME_SYSTEM    = UTC
MEAN_ELEMENT_THEORY = SGP/SGP4

EPOCH          = 2026-02-10T05:00:00.973440
MEAN_MOTION    = 15.56555946
ECCENTRICITY   = .00049175
INCLINATION    = 82.5330
RA_OF_ASC_NODE = 102.6273
ARG_OF_PERICENTER = 47.9874
MEAN_ANOMALY   = 312.1799

EPHEMERIS_TYPE = 0
CLASSIFICATION_TYPE = U
NORAD_CAT_ID   = 16719
ELEMENT_SET_NO = 999
REV_AT_EPOCH   = 17597
BSTAR          = .45237661E-3
MEAN_MOTION_DOT = .3223E-3
MEAN_MOTION_DDOT = 0

