SL-3 R/B                
1 13403U 82079B   26041.16680513  .00005708  00000+0  23008-3 0  9995
2 13403  81.1446 225.5669 0024175 259.3054 100.5457 15.24391306373503
SL-14 R/B               
1 13553U 82092B   26041.30971274  .00000644  00000+0  69512-4 0  9994
2 13553  82.5705 167.0008 0021204  35.7349 347.0134 14.86636026324865
SL-3 R/B                
1 13819U 83010B   26040.99135555  .00015587  00000+0  32373-3 0  9994
2 13819  81.1027  36.1804 0018068 138.8291 221.4320 15.45365270353665
SL-3 R/B                
1 14208U 83075B   26041.16695489  .00012352  00000+0  33338-3 0  9994
2 14208  97.6136  44.7220 0020895 333.5032  26.5142 15.37706454325924
COSMOS 1536             
1 14699U 84013A   26041.26789888  .00006414  00000+0  26704-3 0  9990
2 14699  82.5469 135.0956 0014744  24.6761 335.5178 15.23457246268445
SL-14 R/B               
1 14820U 84027B   26041.15188245  .00000440  00000+0  47488-4 0  9995
2 14820  82.5396 270.8458 0019394  66.6926 293.6329 14.85949032243542
SL-8 R/B                
1 15483U 85006B   26041.25485529  .00000243  00000+0  89449-4 0  9999
2 15483  74.0470 311.6309 0019452 234.8144 245.1897 14.37769586150081
SL-12 R/B(2)            
1 15772U 85042D   26040.70651169  .00000198  00000+0  11067-3 0  9993
2 15772  71.1088 146.8486 0034855 173.0206 299.3710 14.21974521110414
SL-14 R/B               
1 15945U 85069B   26041.07767719  .00000580  00000+0  62836-4 0  9990
2 15945  82.5240  50.9026 0017233 285.3293  74.6019 14.86400223168739
SL-16 R/B               
1 16182U 85097B   26040.96809353 -.00000144  00000+0 -48290-4 0  9999
2 16182  71.0018 198.9112 0009669 292.0196 204.4153 14.16596159 83307
SL-14 R/B               
1 16496U 86006B   26041.19659687  .00000768  00000+0  78945-4 0  9997
2 16496  82.5264 285.6154 0076792   5.0395 355.1576 14.86777697145126
COSMOS 1743             
1 16719U 86034A   26041.20834460  .00032230  00000+0  45238-3 0  9999
2 16719  82.5330 102.6273 0004917  47.9874 312.1799 15.56555946175970
